         0.0000000        2.4863764    23015.6930247        0.7190794      307.3271000      352.9474000       63.8221000
       360.0000000        2.4880395    23005.4354046        0.7189307      171.1587232      352.8933379       63.8215113
       720.0000000        2.4897041    22995.1800709        0.7187821       35.1399603      352.8392361       63.8209225
      1080.0000000        2.4913702    22984.9270235        0.7186334      259.2708111      352.7850945       63.8203338
      1440.0000000        2.4930378    22974.6762623        0.7184848      123.5512757      352.7309131       63.8197450


 1 90033U RELEAS14 00051.92409179 +.00000011  00000 0  00000 0 0 0041                                                                                                                                                                                                                                                                                                                                                                                                                                                            
 2 90033  52.6683  23.9378 0137366 276.7208  81.7737  6.4729361700921                                                                                                                                                                                                                                                                                                                                                                                                                                                            

         0.0000000        6.4727869    12162.0775199        0.0137366       81.7737000       23.9378000       52.6683000
       360.0000000        6.4727869    12162.0775199        0.0137366      304.3379616       23.7799434       52.6683000
       720.0000000        6.4727869    12162.0775199        0.0137366      166.9022231       23.6220867       52.6683000
      1080.0000000        6.4727869    12162.0775199        0.0137366       29.4664847       23.4642301       52.6683000
      1440.0000000        6.4727869    12162.0775199        0.0137366      252.0307463       23.3063735       52.6683000


 1 90034U RELEAS14 00051.38558242 +.00711372  97635-5  13083-2 0 0021                                                                                                                                                                                                                                                                                                                                                                                                                                                            
 2 90034  62.8218  97.3466 0233042 119.4400 242.9881 17.6709972501011                                                                                                                                                                                                                                                                                                                                                                                                                                                            

         0.0000000       17.6766353     6224.9457354        0.0233042      242.9881000       97.3466000       62.8218000
Sgp4Update: e**2 is too large, e**2 =  0.1744E+04. SatNum:     90034-Mse:      360.00                                           
